STARLINK-2248_new
1 18591C 21041AQ  21326.18523970 -.00012846  00000-0 -86060-3 0  3264
2 18591  53.0551 332.8292 0001629  59.7243 240.3300 15.06416450    10
STARLINK-2248_old
1 28591C 21041AQ  21325.15503273 -.00002611  00000-0 -17494-3 0  3257
2 28591  53.0554 337.4539 0001624  59.8474  50.2611 15.06401484    14
